STARLINK-36812          
1 67968U 26038H   26085.16668981 -.00028386  00000+0 -88057-3 0  9990
2 67968  97.2854  96.0253 0001350  83.6523 267.0934 15.33431888  5857
STARLINK-36709          
1 67969U 26038J   26085.16668981 -.01243265  00000+0 -41520-1 0  9999
2 67969  97.2851  96.0433 0002178  88.6964 291.6686 15.34222279  5858
STARLINK-36319          
1 67970U 26038K   26085.16668981 -.01304110  00000+0 -41845-1 0  9998
2 67970  97.2851  96.0002 0002065  70.6471 214.5227 15.35130840  5826
STARLINK-36710          
1 67971U 26038L   26085.16668981 -.00033040  00000+0 -10260-2 0  9997
2 67971  97.2850  96.0480 0001463  57.8421 337.9130 15.33429081  5851
STARLINK-36894          
1 67972U 26038M   26085.16668981 -.00023830  00000+0 -73851-3 0  9990
2 67972  97.2848  96.0541 0001428  95.6756 315.0725 15.33427908  5852
STARLINK-36900          
1 67973U 26038N   26085.00397476  .00072394  00000+0  13192-2 0  9990
2 67973  97.2837  95.7910 0001078  91.3513 268.7862 15.49218352  5733
STARLINK-36901          
1 67974U 26038P   26085.16668981 -.00894886  00000+0 -29649-1 0  9993
2 67974  97.2844  96.0613 0002081 117.3255 308.1446 15.33983460  5855
STARLINK-36883          
1 67975U 26038Q   26085.16668981 -.02285952  00000+0 -55812-1 0  9995
2 67975  97.2857  96.0776 0001532  75.8823  24.2198 15.44147113  5858
STARLINK-36880          
1 67976U 26038R   26085.01478732  .00070531  00000+0  12859-2 0  9999
2 67976  97.2834  95.7764 0001031  98.7648 261.3720 15.49211581  5738
STARLINK-36904          
1 67977U 26038S   26085.16668981 -.02294954  00000+0 -56797-1 0  9992
2 67977  97.2850  96.0715 0001412  80.8477   6.7556 15.43762366  5859
STARLINK-36364          
1 67978U 26038T   26085.16668981 -.03263434  00000+0 -10629+0 0  9995
2 67978  97.2848  96.1084 0002351  81.3059  87.5433 15.36227213  5852
STARLINK-36359          
1 67979U 26038U   26085.16668981 -.03805049  00000+0 -11886+0 0  9996
2 67979  97.2846  96.0649 0001327  97.4785 332.4795 15.37482219  5856
