CCSDS_OMM_VERS = 2.0
CREATION_DATE  = 
ORIGINATOR     = 

OBJECT_NAME    = STARLINK-36812
OBJECT_ID      = 2026-038H
CENTER_NAME    = EARTH
REF_FRAME      = TEME
TIME_SYSTEM    = UTC
MEAN_ELEMENT_THEORY = SGP/SGP4

EPOCH          = 2026-03-26T04:00:01.999584
MEAN_MOTION    = 15.33431888
ECCENTRICITY   = .000135
INCLINATION    = 97.2854
RA_OF_ASC_NODE = 96.0253
ARG_OF_PERICENTER = 83.6523
MEAN_ANOMALY   = 267.0934

EPHEMERIS_TYPE = 0
CLASSIFICATION_TYPE = U
NORAD_CAT_ID   = 67968
ELEMENT_SET_NO = 999
REV_AT_EPOCH   = 585
BSTAR          = -.88057E-3
MEAN_MOTION_DOT = -.28386E-3
MEAN_MOTION_DDOT = 0

CCSDS_OMM_VERS = 2.0
CREATION_DATE  = 
ORIGINATOR     = 

OBJECT_NAME    = STARLINK-36709
OBJECT_ID      = 2026-038J
CENTER_NAME    = EARTH
REF_FRAME      = TEME
TIME_SYSTEM    = UTC
MEAN_ELEMENT_THEORY = SGP/SGP4

EPOCH          = 2026-03-26T04:00:01.999584
MEAN_MOTION    = 15.34222279
ECCENTRICITY   = .0002178
INCLINATION    = 97.2851
RA_OF_ASC_NODE = 96.0433
ARG_OF_PERICENTER = 88.6964
MEAN_ANOMALY   = 291.6686

EPHEMERIS_TYPE = 0
CLASSIFICATION_TYPE = U
NORAD_CAT_ID   = 67969
ELEMENT_SET_NO = 999
REV_AT_EPOCH   = 585
BSTAR          = -.4152E-1
MEAN_MOTION_DOT = -.1243265E-1
MEAN_MOTION_DDOT = 0

CCSDS_OMM_VERS = 2.0
CREATION_DATE  = 
ORIGINATOR     = 

OBJECT_NAME    = STARLINK-36319
OBJECT_ID      = 2026-038K
CENTER_NAME    = EARTH
REF_FRAME      = TEME
TIME_SYSTEM    = UTC
MEAN_ELEMENT_THEORY = SGP/SGP4

EPOCH          = 2026-03-26T04:00:01.999584
MEAN_MOTION    = 15.35130840
ECCENTRICITY   = .0002065
INCLINATION    = 97.2851
RA_OF_ASC_NODE = 96.0002
ARG_OF_PERICENTER = 70.6471
MEAN_ANOMALY   = 214.5227

EPHEMERIS_TYPE = 0
CLASSIFICATION_TYPE = U
NORAD_CAT_ID   = 67970
ELEMENT_SET_NO = 999
REV_AT_EPOCH   = 582
BSTAR          = -.41845E-1
MEAN_MOTION_DOT = -.130411E-1
MEAN_MOTION_DDOT = 0

CCSDS_OMM_VERS = 2.0
CREATION_DATE  = 
ORIGINATOR     = 

OBJECT_NAME    = STARLINK-36710
OBJECT_ID      = 2026-038L
CENTER_NAME    = EARTH
REF_FRAME      = TEME
TIME_SYSTEM    = UTC
MEAN_ELEMENT_THEORY = SGP/SGP4

EPOCH          = 2026-03-26T04:00:01.999584
MEAN_MOTION    = 15.33429081
ECCENTRICITY   = .0001463
INCLINATION    = 97.2850
RA_OF_ASC_NODE = 96.0480
ARG_OF_PERICENTER = 57.8421
MEAN_ANOMALY   = 337.9130

EPHEMERIS_TYPE = 0
CLASSIFICATION_TYPE = U
NORAD_CAT_ID   = 67971
ELEMENT_SET_NO = 999
REV_AT_EPOCH   = 585
BSTAR          = -.1026E-2
MEAN_MOTION_DOT = -.3304E-3
MEAN_MOTION_DDOT = 0

CCSDS_OMM_VERS = 2.0
CREATION_DATE  = 
ORIGINATOR     = 

OBJECT_NAME    = STARLINK-36894
OBJECT_ID      = 2026-038M
CENTER_NAME    = EARTH
REF_FRAME      = TEME
TIME_SYSTEM    = UTC
MEAN_ELEMENT_THEORY = SGP/SGP4

EPOCH          = 2026-03-26T04:00:01.999584
MEAN_MOTION    = 15.33427908
ECCENTRICITY   = .0001428
INCLINATION    = 97.2848
RA_OF_ASC_NODE = 96.0541
ARG_OF_PERICENTER = 95.6756
MEAN_ANOMALY   = 315.0725

EPHEMERIS_TYPE = 0
CLASSIFICATION_TYPE = U
NORAD_CAT_ID   = 67972
ELEMENT_SET_NO = 999
REV_AT_EPOCH   = 585
BSTAR          = -.73851E-3
MEAN_MOTION_DOT = -.2383E-3
MEAN_MOTION_DDOT = 0

CCSDS_OMM_VERS = 2.0
CREATION_DATE  = 
ORIGINATOR     = 

OBJECT_NAME    = STARLINK-36900
OBJECT_ID      = 2026-038N
CENTER_NAME    = EARTH
REF_FRAME      = TEME
TIME_SYSTEM    = UTC
MEAN_ELEMENT_THEORY = SGP/SGP4

EPOCH          = 2026-03-26T00:05:43.419264
MEAN_MOTION    = 15.49218352
ECCENTRICITY   = .0001078
INCLINATION    = 97.2837
RA_OF_ASC_NODE = 95.7910
ARG_OF_PERICENTER = 91.3513
MEAN_ANOMALY   = 268.7862

EPHEMERIS_TYPE = 0
CLASSIFICATION_TYPE = U
NORAD_CAT_ID   = 67973
ELEMENT_SET_NO = 999
REV_AT_EPOCH   = 573
BSTAR          = .13192E-2
MEAN_MOTION_DOT = .72394E-3
MEAN_MOTION_DDOT = 0

CCSDS_OMM_VERS = 2.0
CREATION_DATE  = 
ORIGINATOR     = 

OBJECT_NAME    = STARLINK-36901
OBJECT_ID      = 2026-038P
CENTER_NAME    = EARTH
REF_FRAME      = TEME
TIME_SYSTEM    = UTC
MEAN_ELEMENT_THEORY = SGP/SGP4

EPOCH          = 2026-03-26T04:00:01.999584
MEAN_MOTION    = 15.33983460
ECCENTRICITY   = .0002081
INCLINATION    = 97.2844
RA_OF_ASC_NODE = 96.0613
ARG_OF_PERICENTER = 117.3255
MEAN_ANOMALY   = 308.1446

EPHEMERIS_TYPE = 0
CLASSIFICATION_TYPE = U
NORAD_CAT_ID   = 67974
ELEMENT_SET_NO = 999
REV_AT_EPOCH   = 585
BSTAR          = -.29649E-1
MEAN_MOTION_DOT = -.894886E-2
MEAN_MOTION_DDOT = 0

CCSDS_OMM_VERS = 2.0
CREATION_DATE  = 
ORIGINATOR     = 

OBJECT_NAME    = STARLINK-36883
OBJECT_ID      = 2026-038Q
CENTER_NAME    = EARTH
REF_FRAME      = TEME
TIME_SYSTEM    = UTC
MEAN_ELEMENT_THEORY = SGP/SGP4

EPOCH          = 2026-03-26T04:00:01.999584
MEAN_MOTION    = 15.44147113
ECCENTRICITY   = .0001532
INCLINATION    = 97.2857
RA_OF_ASC_NODE = 96.0776
ARG_OF_PERICENTER = 75.8823
MEAN_ANOMALY   = 24.2198

EPHEMERIS_TYPE = 0
CLASSIFICATION_TYPE = U
NORAD_CAT_ID   = 67975
ELEMENT_SET_NO = 999
REV_AT_EPOCH   = 585
BSTAR          = -.55812E-1
MEAN_MOTION_DOT = -.2285952E-1
MEAN_MOTION_DDOT = 0

CCSDS_OMM_VERS = 2.0
CREATION_DATE  = 
ORIGINATOR     = 

OBJECT_NAME    = STARLINK-36880
OBJECT_ID      = 2026-038R
CENTER_NAME    = EARTH
REF_FRAME      = TEME
TIME_SYSTEM    = UTC
MEAN_ELEMENT_THEORY = SGP/SGP4

EPOCH          = 2026-03-26T00:21:17.624448
MEAN_MOTION    = 15.49211581
ECCENTRICITY   = .0001031
INCLINATION    = 97.2834
RA_OF_ASC_NODE = 95.7764
ARG_OF_PERICENTER = 98.7648
MEAN_ANOMALY   = 261.3720

EPHEMERIS_TYPE = 0
CLASSIFICATION_TYPE = U
NORAD_CAT_ID   = 67976
ELEMENT_SET_NO = 999
REV_AT_EPOCH   = 573
BSTAR          = .12859E-2
MEAN_MOTION_DOT = .70531E-3
MEAN_MOTION_DDOT = 0

CCSDS_OMM_VERS = 2.0
CREATION_DATE  = 
ORIGINATOR     = 

OBJECT_NAME    = STARLINK-36904
OBJECT_ID      = 2026-038S
CENTER_NAME    = EARTH
REF_FRAME      = TEME
TIME_SYSTEM    = UTC
MEAN_ELEMENT_THEORY = SGP/SGP4

EPOCH          = 2026-03-26T04:00:01.999584
MEAN_MOTION    = 15.43762366
ECCENTRICITY   = .0001412
INCLINATION    = 97.2850
RA_OF_ASC_NODE = 96.0715
ARG_OF_PERICENTER = 80.8477
MEAN_ANOMALY   = 6.7556

EPHEMERIS_TYPE = 0
CLASSIFICATION_TYPE = U
NORAD_CAT_ID   = 67977
ELEMENT_SET_NO = 999
REV_AT_EPOCH   = 585
BSTAR          = -.56797E-1
MEAN_MOTION_DOT = -.2294954E-1
MEAN_MOTION_DDOT = 0

CCSDS_OMM_VERS = 2.0
CREATION_DATE  = 
ORIGINATOR     = 

OBJECT_NAME    = STARLINK-36364
OBJECT_ID      = 2026-038T
CENTER_NAME    = EARTH
REF_FRAME      = TEME
TIME_SYSTEM    = UTC
MEAN_ELEMENT_THEORY = SGP/SGP4

EPOCH          = 2026-03-26T04:00:01.999584
MEAN_MOTION    = 15.36227213
ECCENTRICITY   = .0002351
INCLINATION    = 97.2848
RA_OF_ASC_NODE = 96.1084
ARG_OF_PERICENTER = 81.3059
MEAN_ANOMALY   = 87.5433

EPHEMERIS_TYPE = 0
CLASSIFICATION_TYPE = U
NORAD_CAT_ID   = 67978
ELEMENT_SET_NO = 999
REV_AT_EPOCH   = 585
BSTAR          = -.10629E+0
MEAN_MOTION_DOT = -.3263434E-1
MEAN_MOTION_DDOT = 0

CCSDS_OMM_VERS = 2.0
CREATION_DATE  = 
ORIGINATOR     = 

OBJECT_NAME    = STARLINK-36359
OBJECT_ID      = 2026-038U
CENTER_NAME    = EARTH
REF_FRAME      = TEME
TIME_SYSTEM    = UTC
MEAN_ELEMENT_THEORY = SGP/SGP4

EPOCH          = 2026-03-26T04:00:01.999584
MEAN_MOTION    = 15.37482219
ECCENTRICITY   = .0001327
INCLINATION    = 97.2846
RA_OF_ASC_NODE = 96.0649
ARG_OF_PERICENTER = 97.4785
MEAN_ANOMALY   = 332.4795

EPHEMERIS_TYPE = 0
CLASSIFICATION_TYPE = U
NORAD_CAT_ID   = 67979
ELEMENT_SET_NO = 999
REV_AT_EPOCH   = 585
BSTAR          = -.11886E+0
MEAN_MOTION_DOT = -.3805049E-1
MEAN_MOTION_DDOT = 0

